OBJECT_NAME,OBJECT_ID,EPOCH,MEAN_MOTION,ECCENTRICITY,INCLINATION,RA_OF_ASC_NODE,ARG_OF_PERICENTER,MEAN_ANOMALY,EPHEMERIS_TYPE,CLASSIFICATION_TYPE,NORAD_CAT_ID,ELEMENT_SET_NO,REV_AT_EPOCH,BSTAR,MEAN_MOTION_DOT,MEAN_MOTION_DDOT
ONEWEB-0063,2020-020AA,2026-06-14T15:44:52.461600,13.11420453,.0002131,87.8898,21.5723,85.7888,274.3483,0,U,45448,999,30236,.11655E-2,.426E-5,0
ONEWEB-0019,2020-020AB,2026-06-14T20:20:21.852960,13.11415172,.0001713,87.8891,21.5207,89.2339,270.8985,0,U,45449,999,30223,-.95812E-3,-.327E-5,0
ONEWEB-0094,2020-020AC,2026-06-14T20:22:25.797216,13.17647082,.0001627,87.9145,6.3141,85.1778,274.9539,0,U,45450,999,30600,-.72078E-4,-.15E-6,0
ONEWEB-0087,2020-020AD,2026-06-14T21:28:44.544000,13.11417384,.0001693,87.8907,21.4986,75.6921,284.4394,0,U,45451,999,30228,.1548E-2,.561E-5,0
ONEWEB-0082,2020-020AE,2026-06-14T21:23:52.361664,13.11418412,.0001877,87.8898,21.5161,70.0487,290.0843,0,U,45452,999,30237,.13406E-2,.488E-5,0
ONEWEB-0050,2020-020AF,2026-06-14T14:11:07.649664,14.90372292,.0003555,88.9301,233.5629,32.8871,327.2578,0,U,45453,999,33999,.23907E-3,.2346E-4,0
ONEWEB-0034,2020-020AG,2026-06-14T20:28:05.050272,13.11419269,.0001778,87.8895,21.5330,85.0367,275.0964,0,U,45454,999,30228,-.34754E-2,-.1219E-4,0
ONEWEB-0060,2020-020AH,2026-06-14T15:43:27.435360,13.11419546,.0001402,87.8891,21.5707,50.4830,309.6422,0,U,45455,999,30221,.11006E-2,.403E-5,0
ONEWEB-0086,2020-020AJ,2026-06-14T20:42:20.068992,13.11416391,.0001048,87.8899,21.5249,78.2779,281.8467,0,U,45456,999,30230,-.13487E-2,-.465E-5,0
ONEWEB-0088,2020-020AK,2026-06-14T20:10:47.953056,13.11416105,.000218,87.8905,21.5015,80.4084,279.7290,0,U,45457,999,30223,-.37333E-3,-.12E-5,0
ONEWEB-0102,2020-100A,2026-06-14T18:29:39.813216,13.12442440,.0001582,87.8938,351.1559,96.7933,263.3376,0,U,47258,999,26441,-.17971E-2,-.634E-5,0
ONEWEB-0109,2020-100B,2026-06-14T18:41:51.794016,13.12444619,.0001821,87.8949,351.1377,95.3036,264.8300,0,U,47259,999,26424,-.10919E-2,-.38E-5,0
ONEWEB-0110,2020-100C,2026-06-14T19:20:54.500640,13.12444772,.0001536,87.8949,351.1166,88.0413,272.0891,0,U,47260,999,26441,.12963E-2,.479E-5,0
ONEWEB-0111,2020-100D,2026-06-14T18:15:01.704096,13.12440424,.0001766,87.8948,351.1441,87.3866,272.7465,0,U,47261,999,26424,-.6494E-3,-.221E-5,0
ONEWEB-0114,2020-100E,2026-06-14T18:58:56.637120,13.12445299,.0002002,87.8950,351.1357,95.8575,264.2782,0,U,47262,999,26420,-.65019E-4,-.11E-6,0
ONEWEB-0117,2020-100F,2026-06-14T18:46:45.070176,13.12444376,.0001763,87.8946,351.1284,90.2225,269.9105,0,U,47263,999,26421,-.73192E-3,-.251E-5,0
ONEWEB-0118,2020-100G,2026-06-14T12:16:25.538016,13.12442374,.00021307,87.8947,351.1848,92.3370,267.8003,0,U,47264,999,26437,.10412839E-2,.387E-5,0
ONEWEB-0119,2020-100H,2026-06-14T18:22:21.406656,13.12443146,.0001809,87.8937,351.1510,90.6918,269.4418,0,U,47265,999,26438,-.97175E-3,-.337E-5,0
ONEWEB-0120,2020-100J,2026-06-14T18:56:42.805248,13.12445335,.0001821,87.8938,351.1478,96.1277,264.0059,0,U,47266,999,26441,-.10576E-3,-.25E-6,0
ONEWEB-0121,2020-100K,2026-06-14T18:39:25.714944,13.12443794,.0001753,87.8949,351.1360,80.2990,279.8336,0,U,47267,999,26432,-.10198E-2,-.354E-5,0
ONEWEB-0122,2020-100L,2026-06-14T18:30:54.196704,13.12443037,.0001701,87.8950,351.1411,95.0812,265.0511,0,U,47268,999,26423,-.11134E-2,-.388E-5,0
ONEWEB-0123,2020-100M,2026-06-14T18:24:47.541024,13.12443734,.0001932,87.8937,351.1497,90.4902,269.6448,0,U,47269,999,26437,-.11014E-2,-.384E-5,0
ONEWEB-0124,2020-100N,2026-06-14T18:10:09.483744,13.12443072,.0001792,87.8936,351.1550,87.0967,273.0366,0,U,47270,999,26425,-.2458E-3,-.76E-6,0
ONEWEB-0125,2020-100P,2026-06-14T19:28:13.365120,13.12444897,.0001984,87.8949,351.1273,82.0381,278.0972,0,U,47271,999,26432,.13693E-2,.505E-5,0
ONEWEB-0126,2020-100Q,2026-06-14T18:07:55.861824,13.12441922,.0001859,87.8941,351.1542,94.2528,265.8813,0,U,47272,999,26438,-.82139E-4,-.17E-6,0
ONEWEB-0127,2020-100R,2026-06-14T19:08:42.332352,13.12445126,.0001806,87.8937,351.1448,94.8471,265.2864,0,U,47273,999,26441,.53401E-3,.205E-5,0
ONEWEB-0128,2020-100S,2026-06-14T17:50:38.588352,13.12442355,.0001499,87.8936,351.1694,87.2394,272.8906,0,U,47274,999,26442,.11115E-2,.413E-5,0
ONEWEB-0129,2020-100T,2026-06-14T19:11:09.314304,13.12444106,.0002339,87.8946,351.1318,119.0110,241.1253,0,U,47275,999,26436,.73633E-3,.278E-5,0
ONEWEB-0130,2020-100U,2026-06-14T18:00:24.518592,13.12442052,.0001731,87.8949,351.1368,93.5238,266.6088,0,U,47276,999,26432,.29198E-3,.118E-5,0
ONEWEB-0131,2020-100V,2026-06-14T17:55:31.059264,13.12442810,.0001755,87.8937,351.1560,90.9140,269.2190,0,U,47277,999,26436,.58149E-3,.222E-5,0
