ONEWEB-0063             
1 45448U 20020AA  26165.65616275  .00000426  00000+0  11655-2 0  9998
2 45448  87.8898  21.5723 0002131  85.7888 274.3483 13.11420453302365
ONEWEB-0019             
1 45449U 20020AB  26165.84747515 -.00000327  00000+0 -95812-3 0  9992
2 45449  87.8891  21.5207 0001713  89.2339 270.8985 13.11415172302237
ONEWEB-0094             
1 45450U 20020AC  26165.84890969 -.00000015  00000+0 -72078-4 0  9990
2 45450  87.9145   6.3141 0001627  85.1778 274.9539 13.17647082306008
ONEWEB-0087             
1 45451U 20020AD  26165.89496000  .00000561  00000+0  15480-2 0  9990
2 45451  87.8907  21.4986 0001693  75.6921 284.4394 13.11417384302281
ONEWEB-0082             
1 45452U 20020AE  26165.89157826  .00000488  00000+0  13406-2 0  9995
2 45452  87.8898  21.5161 0001877  70.0487 290.0843 13.11418412302372
ONEWEB-0050             
1 45453U 20020AF  26165.59106076  .00002346  00000+0  23907-3 0  9997
2 45453  88.9301 233.5629 0003555  32.8871 327.2578 14.90372292339995
ONEWEB-0034             
1 45454U 20020AG  26165.85283623 -.00001219  00000+0 -34754-2 0  9992
2 45454  87.8895  21.5330 0001778  85.0367 275.0964 13.11419269302280
ONEWEB-0060             
1 45455U 20020AH  26165.65517865  .00000403  00000+0  11006-2 0  9996
2 45455  87.8891  21.5707 0001402  50.4830 309.6422 13.11419546302214
ONEWEB-0086             
1 45456U 20020AJ  26165.86273228 -.00000465  00000+0 -13487-2 0  9997
2 45456  87.8899  21.5249 0001048  78.2779 281.8467 13.11416391302305
ONEWEB-0088             
1 45457U 20020AK  26165.84083279 -.00000120  00000+0 -37333-3 0  9996
2 45457  87.8905  21.5015 0002180  80.4084 279.7290 13.11416105302232
ONEWEB-0102             
1 47258U 20100A   26165.77059969 -.00000634  00000+0 -17971-2 0  9992
2 47258  87.8938 351.1559 0001582  96.7933 263.3376 13.12442440264415
ONEWEB-0109             
1 47259U 20100B   26165.77907169 -.00000380  00000+0 -10919-2 0  9990
2 47259  87.8949 351.1377 0001821  95.3036 264.8300 13.12444619264245
ONEWEB-0110             
1 47260U 20100C   26165.80618635  .00000479  00000+0  12963-2 0  9991
2 47260  87.8949 351.1166 0001536  88.0413 272.0891 13.12444772264419
ONEWEB-0111             
1 47261U 20100D   26165.76043639 -.00000221  00000+0 -64940-3 0  9993
2 47261  87.8948 351.1441 0001766  87.3866 272.7465 13.12440424264249
ONEWEB-0114             
1 47262U 20100E   26165.79093330 -.00000011  00000+0 -65019-4 0  9996
2 47262  87.8950 351.1357 0002002  95.8575 264.2782 13.12445299264203
ONEWEB-0117             
1 47263U 20100F   26165.78246609 -.00000251  00000+0 -73192-3 0  9991
2 47263  87.8946 351.1284 0001763  90.2225 269.9105 13.12444376264219
ONEWEB-0118             
1 47264U 20100G   26165.51140669  .00000387  00000+0  10413-2 0  9996
2 47264  87.8947 351.1848 0002130  92.3370 267.8003 13.12442374264377
ONEWEB-0119             
1 47265U 20100H   26165.76552554 -.00000337  00000+0 -97175-3 0  9992
2 47265  87.8937 351.1510 0001809  90.6918 269.4418 13.12443146264381
ONEWEB-0120             
1 47266U 20100J   26165.78938432 -.00000025  00000+0 -10576-3 0  9992
2 47266  87.8938 351.1478 0001821  96.1277 264.0059 13.12445335264417
ONEWEB-0121             
1 47267U 20100K   26165.77738096 -.00000354  00000+0 -10198-2 0  9990
2 47267  87.8949 351.1360 0001753  80.2990 279.8336 13.12443794264329
ONEWEB-0122             
1 47268U 20100L   26165.77146061 -.00000388  00000+0 -11134-2 0  9994
2 47268  87.8950 351.1411 0001701  95.0812 265.0511 13.12443037264231
ONEWEB-0123             
1 47269U 20100M   26165.76721691 -.00000384  00000+0 -11014-2 0  9995
2 47269  87.8937 351.1497 0001932  90.4902 269.6448 13.12443734264374
ONEWEB-0124             
1 47270U 20100N   26165.75705421 -.00000076  00000+0 -24580-3 0  9990
2 47270  87.8936 351.1550 0001792  87.0967 273.0366 13.12443072264252
ONEWEB-0125             
1 47271U 20100P   26165.81126580  .00000505  00000+0  13693-2 0  9998
2 47271  87.8949 351.1273 0001984  82.0381 278.0972 13.12444897264329
ONEWEB-0126             
1 47272U 20100Q   26165.75550766 -.00000017  00000+0 -82139-4 0  9992
2 47272  87.8941 351.1542 0001859  94.2528 265.8813 13.12441922264380
ONEWEB-0127             
1 47273U 20100R   26165.79771218  .00000205  00000+0  53401-3 0  9990
2 47273  87.8937 351.1448 0001806  94.8471 265.2864 13.12445126264410
ONEWEB-0128             
1 47274U 20100S   26165.74350218  .00000413  00000+0  11115-2 0  9995
2 47274  87.8936 351.1694 0001499  87.2394 272.8906 13.12442355264424
ONEWEB-0129             
1 47275U 20100T   26165.79941336  .00000278  00000+0  73633-3 0  9991
2 47275  87.8946 351.1318 0002339 119.0110 241.1253 13.12444106264366
ONEWEB-0130             
1 47276U 20100U   26165.75028378  .00000118  00000+0  29198-3 0  9990
2 47276  87.8949 351.1368 0001731  93.5238 266.6088 13.12442052264329
ONEWEB-0131             
1 47277U 20100V   26165.74688726  .00000222  00000+0  58149-3 0  9993
2 47277  87.8937 351.1560 0001755  90.9140 269.2190 13.12442810264369
